{"fetched_at":"2026-03-29T16:36:15Z","count":15609,"tles":[{"name":"STARLINK-35955","line1":"1 66635U 25271U   26087.29563379  .00027822  00000+0  94673-3 0  9992","line2":"2 66635  53.1611  53.6307 0001725  76.6885 283.4309 15.30242637 20413","category":"Starlink"}]}