{
  "norad_id": 66635,
  "name": "STARLINK-35955",
  "history": [
    {
      "epoch": "2026-03-28T07:05:42.759456",
      "apogee_km": 476.26994725077293,
      "perigee_km": 473.9055847065101,
      "latitude_deg": -53.07453793205699,
      "longitude_deg": 151.88084383984096,
      "semi_major_axis_km": 6853.224765978642,
      "eccentricity": 0.0001725,
      "inclination_deg": 53.1611,
      "raan_deg": 53.6307,
      "arg_perigee_deg": 76.6885,
      "mean_anomaly_deg": 283.4309,
      "mean_motion_rev_day": 15.30242637
    }
  ]
}